NORAD_CAT_ID,OBJECT_NAME,OBJECT_TYPE,EPOCH,MEAN_MOTION,ECCENTRICITY,INCLINATION,RA_OF_ASC_NODE,ARG_OF_PERICENTER,MEAN_ANOMALY,BSTAR,MEAN_MOTION_DOT,MEAN_MOTION_DDOT,TLE_LINE0,TLE_LINE1,TLE_LINE2,SEMIMAJOR_AXIS,PERIOD,APOGEE,PERIGEE,DECAYED
51123.0,STARLINK-3392,PAYLOAD,2024-04-05 17:04:39,15.08845527,0.0001352,53.2171,204.9114,95.383,264.7317,0.00014617,2.039e-05,0.0,0 STARLINK-3392,1 51123U 22005V   24096.71156923  .00002039  00000-0  14617-3 0  9992,2 51123  53.2171 204.9114 0001352  95.3830 264.7317 15.08845527123835,6917.863,95.437,540.664,538.793,0.0
51123.0,STARLINK-3392,PAYLOAD,2024-04-06 13:44:40,15.0883897,0.000124,53.2162,201.0455,93.2178,266.8956,0.00012857,1.759e-05,0.0,0 STARLINK-3392,1 51123U 22005V   24097.57269318  .00001759  00000-0  12857-3 0  9992,2 51123  53.2162 201.0455 0001240  93.2178 266.8956 15.08838970123969,6917.884,95.438,540.606,538.891,0.0
51123.0,STARLINK-3392,PAYLOAD,2024-04-07 13:35:28,15.08834788,0.0001549,53.2172,196.5865,98.6453,261.4715,3.9059e-05,3.34e-06,0.0,0 STARLINK-3392,1 51123U 22005V   24098.56629881  .00000334  00000-0  39059-4 0  9999,2 51123  53.2172 196.5865 0001549  98.6453 261.4715 15.08834788123035,6917.896,95.438,540.833,538.69,0.0
51123.0,STARLINK-3392,PAYLOAD,2024-04-07 23:07:46,15.0883989,0.0001616,53.2182,194.8026,96.7243,263.3933,8.3792e-05,1.046e-05,0.0,0 STARLINK-3392,1 51123U 22005V   24098.96373442  .00001046  00000-0  83792-4 0  9996,2 51123  53.2182 194.8026 0001616  96.7243 263.3933 15.08839890124175,6917.881,95.438,540.864,538.628,0.0
51123.0,STARLINK-3392,PAYLOAD,2024-04-08 10:15:28,15.08836908,0.0001537,53.2207,192.723,100.0204,260.0962,9.02e-05,1.148e-05,0.0,0 STARLINK-3392,1 51123U 22005V   24099.42741848  .00001148  00000-0  90200-4 0  9992,2 51123  53.2207 192.7230 0001537 100.0204 260.0962 15.08836908123166,6917.89,95.438,540.818,538.692,0.0
51123.0,STARLINK-3392,PAYLOAD,2024-04-08 22:58:33,15.08847239,0.000156,53.217,190.3422,91.7172,268.3999,0.00028132,4.193e-05,0.0,0 STARLINK-3392,1 51123U 22005V   24099.95733425  .00004193  00000-0  28132-3 0  9999,2 51123  53.2170 190.3422 0001560  91.7172 268.3999 15.08847239123247,6917.858,95.437,540.802,538.644,0.0
51123.0,STARLINK-3392,PAYLOAD,2024-04-09 10:06:16,15.08838433,0.0001665,53.2192,188.262,94.2107,265.9076,0.00011318,1.514e-05,0.0,0 STARLINK-3392,1 51123U 22005V   24100.42101853  .00001514  00000-0  11318-3 0  9990,2 51123  53.2192 188.2620 0001665  94.2107 265.9076 15.08838433124391,6917.885,95.438,540.902,538.598,0.0
51123.0,STARLINK-3392,PAYLOAD,2024-04-10 11:32:25,15.08842298,0.0001385,53.2175,183.5043,97.7535,262.3614,9.3248e-05,1.197e-05,0.0,0 STARLINK-3392,1 51123U 22005V   24101.48085604  .00001197  00000-0  93248-4 0  9992,2 51123  53.2175 183.5043 0001385  97.7535 262.3614 15.08842298124552,6917.873,95.437,540.696,538.78,0.0
51123.0,STARLINK-3392,PAYLOAD,2024-04-10 22:40:07,15.08856615,0.0001465,53.2155,181.4198,80.8679,279.2479,0.00035103,5.306e-05,0.0,0 STARLINK-3392,1 51123U 22005V   24101.94452790  .00005306  00000-0  35103-3 0  9998,2 51123  53.2155 181.4198 0001465  80.8679 279.2479 15.08856615123541,6917.83,95.437,540.708,538.681,0.0
51123.0,STARLINK-3392,PAYLOAD,2024-04-11 11:23:12,15.08835453,0.0001638,53.2147,179.0421,82.7809,277.3369,-6.5929e-05,-1.337e-05,0.0,0 STARLINK-3392,1 51123U 22005V   24102.47445572 -.00001337  00000-0 -65929-4 0  9999,2 51123  53.2147 179.0421 0001638  82.7809 277.3369 15.08835453123625,6917.894,95.438,540.892,538.626,0.0
51123.0,STARLINK-3392,PAYLOAD,2024-04-11 22:30:54,15.08844317,0.000142,53.2154,176.9599,84.5008,275.6146,0.00024639,3.636e-05,0.0,0 STARLINK-3392,1 51123U 22005V   24102.93813271  .00003636  00000-0  24639-3 0  9999,2 51123  53.2154 176.9599 0001420  84.5008 275.6146 15.08844317124775,6917.867,95.437,540.715,538.75,0.0
51123.0,STARLINK-3392,PAYLOAD,2024-04-12 11:14:00,15.08840512,0.0001667,53.2174,174.5796,94.0445,266.0737,9.5831e-05,1.237e-05,0.0,0 STARLINK-3392,1 51123U 22005V   24103.46805595  .00001237  00000-0  95831-4 0  9996,2 51123  53.2174 174.5796 0001667  94.0445 266.0737 15.08840512124856,6917.879,95.438,540.897,538.591,0.0
51123.0,STARLINK-3392,PAYLOAD,2024-04-13 11:04:47,15.08837603,0.0001618,53.2179,170.1192,92.8215,267.2963,9.3357e-05,1.198e-05,0.0,0 STARLINK-3392,1 51123U 22005V   24104.46165941  .00001198  00000-0  93357-4 0  9998,2 51123  53.2179 170.1192 0001618  92.8215 267.2963 15.08837603125009,6917.888,95.438,540.872,538.633,0.0
51123.0,STARLINK-3392,PAYLOAD,2024-04-14 10:55:34,15.08840452,0.0001409,53.2159,165.6569,88.6471,271.4683,0.00013022,1.785e-05,0.0,0 STARLINK-3392,1 51123U 22005V   24105.45525923  .00001785  00000-0  13022-3 0  9990,2 51123  53.2159 165.6569 0001409  88.6471 271.4683 15.08840452124077,6917.879,95.438,540.719,538.769,0.0
51123.0,STARLINK-3392,PAYLOAD,2024-04-15 04:24:48,15.08843804,0.0001443,53.2161,162.3874,91.3791,268.7367,0.00018152,2.602e-05,0.0,0 STARLINK-3392,1 51123U 22005V   24106.18389750  .00002602  00000-0  18152-3 0  9995,2 51123  53.2161 162.3874 0001443  91.3791 268.7367 15.08843804125261,6917.869,95.437,540.732,538.736,0.0
51123.0,STARLINK-3392,PAYLOAD,2024-04-15 09:10:58,15.08843746,0.0001447,53.2161,161.4953,92.384,267.7318,0.00016229,2.296e-05,0.0,0 STARLINK-3392,1 51123U 22005V   24106.38261725  .00002296  00000-0  16229-3 0  9990,2 51123  53.2161 161.4953 0001447  92.3840 267.7318 15.08843746124213,6917.869,95.437,540.735,538.733,0.0
51123.0,STARLINK-3392,PAYLOAD,2024-04-15 20:18:39,15.08854943,0.000154,53.217,159.4189,102.9195,257.197,0.00027508,4.094e-05,0.0,0 STARLINK-3392,1 51123U 22005V   24106.84628981  .00004094  00000-0  27508-3 0  9992,2 51123  53.2170 159.4189 0001540 102.9195 257.1970 15.08854943124281,6917.835,95.437,540.765,538.634,0.0
51123.0,STARLINK-3392,PAYLOAD,2024-04-16 10:37:08,15.08838431,0.0001675,53.2167,156.7432,106.4411,253.6766,1.4873e-05,-5.1e-07,0.0,0 STARLINK-3392,1 51123U 22005V   24107.44245883 -.00000051  00000-0  14873-4 0  9997,2 51123  53.2167 156.7432 0001675 106.4411 253.6766 15.08838431125455,6917.885,95.438,540.909,538.591,0.0
51123.0,STARLINK-3392,PAYLOAD,2024-04-17 10:27:55,15.08850709,0.0001467,53.2157,152.2809,99.4097,260.7061,0.0003887,5.905e-05,0.0,0 STARLINK-3392,1 51123U 22005V   24108.43605368  .00005905  00000-0  38870-3 0  9999,2 51123  53.2157 152.2809 0001467  99.4097 260.7061 15.08850709125609,6917.848,95.437,540.728,538.698,0.0
51123.0,STARLINK-3392,PAYLOAD,2024-04-18 02:21:46,15.08839781,0.0001423,53.2149,149.3064,92.2516,267.864,9.7244e-05,1.26e-05,0.0,0 STARLINK-3392,1 51123U 22005V   24109.09845737  .00001260  00000-0  97244-4 0  9999,2 51123  53.2149 149.3064 0001423  92.2516 267.8640 15.08839781125708,6917.881,95.438,540.73,538.762,0.0
51123.0,STARLINK-3392,PAYLOAD,2024-04-18 11:54:06,15.08830445,0.0001358,53.2153,147.5208,91.79,268.3248,-2.5612e-05,-6.95e-06,0.0,0 STARLINK-3392,1 51123U 22005V   24109.49590604 -.00000695  00000-0 -25612-4 0  9996,2 51123  53.2153 147.5208 0001358  91.7900 268.3248 15.08830445125765,6917.91,95.438,540.714,538.835,0.0
51123.0,STARLINK-3392,PAYLOAD,2024-04-19 08:34:06,15.08849689,0.0001301,53.2166,143.653,90.8816,269.2325,3.4532e-05,2.62e-06,0.0,0 STARLINK-3392,1 51123U 22005V   24110.35701932  .00000262  00000-0  34532-4 0  9990,2 51123  53.2166 143.6530 0001301  90.8816 269.2325 15.08849689125898,6917.851,95.437,540.616,538.816,0.0
51123.0,STARLINK-3392,PAYLOAD,2024-04-20 11:35:39,15.08866904,0.0001419,53.2161,138.599,87.2761,272.8393,0.00056453,8.714e-05,0.0,0 STARLINK-3392,1 51123U 22005V   24111.48309138  .00008714  00000-0  56453-3 0  9992,2 51123  53.2161 138.5990 0001419  87.2761 272.8393 15.08866904126069,6917.798,95.436,540.645,538.682,0.0
51123.0,STARLINK-3392,PAYLOAD,2024-04-21 11:26:27,15.08811233,0.0001471,53.2161,134.1378,84.2978,275.8182,-0.00060353,-9.873e-05,0.0,0 STARLINK-3392,1 51123U 22005V   24112.47670827 -.00009873  00000-0 -60353-3 0  9991,2 51123  53.2161 134.1378 0001471  84.2978 275.8182 15.08811233125137,6917.968,95.439,540.851,538.816,0.0
51123.0,STARLINK-3392,PAYLOAD,2024-04-22 01:44:56,15.08821296,0.0001258,53.2156,131.4631,73.9972,286.1159,0.00032267,4.849e-05,0.0,0 STARLINK-3392,1 51123U 22005V   24113.07287773  .00004849  00000-0  32267-3 0  9991,2 51123  53.2156 131.4631 0001258  73.9972 286.1159 15.08821296126304,6917.938,95.439,540.673,538.932,0.0
51123.0,STARLINK-3392,PAYLOAD,2024-04-22 08:06:29,15.08837176,0.0001424,53.2159,130.2735,77.7619,282.3532,0.0013676,0.00021543,0.0,0 STARLINK-3392,1 51123U 22005V   24113.33784128  .00021543  00000-0  13676-2 0  9998,2 51123  53.2159 130.2735 0001424  77.7619 282.3532 15.08837176126345,6917.889,95.438,540.739,538.769,0.0
51123.0,STARLINK-3392,PAYLOAD,2024-04-22 11:17:15,15.08844884,0.0001445,53.2156,129.6789,74.5783,285.5368,0.0013644,0.00021496,0.0,0 STARLINK-3392,1 51123U 22005V   24113.47032084  .00021496  00000-0  13644-2 0  9992,2 51123  53.2156 129.6789 0001445  74.5783 285.5368 15.08844884125281,6917.865,95.437,540.73,538.731,0.0
51123.0,STARLINK-3392,PAYLOAD,2024-04-23 04:46:29,15.08857346,0.0001449,53.2159,126.4082,88.5356,271.5802,0.0008917,0.00013939,0.0,0 STARLINK-3392,1 51123U 22005V   24114.19895687  .00013939  00000-0  89170-3 0  9999,2 51123  53.2159 126.4082 0001449  88.5356 271.5802 15.08857346126477,6917.827,95.436,540.695,538.69,0.0
51123.0,STARLINK-3392,PAYLOAD,2024-04-23 11:08:02,15.08861281,0.0001422,53.2158,125.2188,87.2191,272.8964,0.00075014,0.00011678,0.0,0 STARLINK-3392,1 51123U 22005V   24114.46391389  .00011678  00000-0  75014-3 0  9999,2 51123  53.2158 125.2188 0001422  87.2191 272.8964 15.08861281125435,6917.815,95.436,540.664,538.697,0.0
51123.0,STARLINK-3392,PAYLOAD,2024-04-24 10:58:48,15.08851446,0.0001442,53.2157,120.7552,90.2339,269.8819,0.00016638,2.362e-05,0.0,0 STARLINK-3392,1 51123U 22005V   24115.45750919  .00002362  00000-0  16638-3 0  9994,2 51123  53.2157 120.7552 0001442  90.2339 269.8819 15.08851446126662,6917.845,95.437,540.708,538.713,0.0
